CCSDS_OMM_VERS = 2.0
CREATION_DATE  = 
ORIGINATOR     = 

OBJECT_NAME    = STARLINK-36488
OBJECT_ID      = 2026-002B
CENTER_NAME    = EARTH
REF_FRAME      = TEME
TIME_SYSTEM    = UTC
MEAN_ELEMENT_THEORY = SGP/SGP4

EPOCH          = 2026-01-20T22:00:01.999584
MEAN_MOTION    = 15.75028458
ECCENTRICITY   = .00019508
INCLINATION    = 42.9988
RA_OF_ASC_NODE = 239.6634
ARG_OF_PERICENTER = 268.4510
MEAN_ANOMALY   = 321.6363

EPHEMERIS_TYPE = 0
CLASSIFICATION_TYPE = U
NORAD_CAT_ID   = 67306
ELEMENT_SET_NO = 999
REV_AT_EPOCH   = 373
BSTAR          = .10319913E-3
MEAN_MOTION_DOT = .15396E-3
MEAN_MOTION_DDOT = 0

CCSDS_OMM_VERS = 2.0
CREATION_DATE  = 
ORIGINATOR     = 

OBJECT_NAME    = STARLINK-36481
OBJECT_ID      = 2026-002C
CENTER_NAME    = EARTH
REF_FRAME      = TEME
TIME_SYSTEM    = UTC
MEAN_ELEMENT_THEORY = SGP/SGP4

EPOCH          = 2026-01-20T22:00:01.999584
MEAN_MOTION    = 15.75032400
ECCENTRICITY   = .00018886
INCLINATION    = 42.9989
RA_OF_ASC_NODE = 239.6544
ARG_OF_PERICENTER = 283.5209
MEAN_ANOMALY   = 310.3989

EPHEMERIS_TYPE = 0
CLASSIFICATION_TYPE = U
NORAD_CAT_ID   = 67307
ELEMENT_SET_NO = 999
REV_AT_EPOCH   = 373
BSTAR          = .8880086E-5
MEAN_MOTION_DOT = .886E-5
MEAN_MOTION_DDOT = 0

CCSDS_OMM_VERS = 2.0
CREATION_DATE  = 
ORIGINATOR     = 

OBJECT_NAME    = STARLINK-36449
OBJECT_ID      = 2026-002D
CENTER_NAME    = EARTH
REF_FRAME      = TEME
TIME_SYSTEM    = UTC
MEAN_ELEMENT_THEORY = SGP/SGP4

EPOCH          = 2026-01-20T22:00:01.999584
MEAN_MOTION    = 15.75023410
ECCENTRICITY   = .00016046
INCLINATION    = 42.9987
RA_OF_ASC_NODE = 239.6494
ARG_OF_PERICENTER = 270.1185
MEAN_ANOMALY   = 325.7196

EPHEMERIS_TYPE = 0
CLASSIFICATION_TYPE = U
NORAD_CAT_ID   = 67308
ELEMENT_SET_NO = 999
REV_AT_EPOCH   = 379
BSTAR          = .1990294E-3
MEAN_MOTION_DOT = .30184E-3
MEAN_MOTION_DDOT = 0

CCSDS_OMM_VERS = 2.0
CREATION_DATE  = 
ORIGINATOR     = 

OBJECT_NAME    = STARLINK-36482
OBJECT_ID      = 2026-002E
CENTER_NAME    = EARTH
REF_FRAME      = TEME
TIME_SYSTEM    = UTC
MEAN_ELEMENT_THEORY = SGP/SGP4

EPOCH          = 2026-01-20T22:00:01.999584
MEAN_MOTION    = 15.75030134
ECCENTRICITY   = .00017297
INCLINATION    = 42.9990
RA_OF_ASC_NODE = 239.6259
ARG_OF_PERICENTER = 286.0077
MEAN_ANOMALY   = 319.4158

EPHEMERIS_TYPE = 0
CLASSIFICATION_TYPE = U
NORAD_CAT_ID   = 67309
ELEMENT_SET_NO = 999
REV_AT_EPOCH   = 373
BSTAR          = .37430952E-4
MEAN_MOTION_DOT = .5273E-4
MEAN_MOTION_DDOT = 0

CCSDS_OMM_VERS = 2.0
CREATION_DATE  = 
ORIGINATOR     = 

OBJECT_NAME    = STARLINK-36491
OBJECT_ID      = 2026-002F
CENTER_NAME    = EARTH
REF_FRAME      = TEME
TIME_SYSTEM    = UTC
MEAN_ELEMENT_THEORY = SGP/SGP4

EPOCH          = 2026-01-20T22:00:01.999584
MEAN_MOTION    = 15.75034819
ECCENTRICITY   = .00016639
INCLINATION    = 42.9987
RA_OF_ASC_NODE = 239.6593
ARG_OF_PERICENTER = 261.9673
MEAN_ANOMALY   = 330.0347

EPHEMERIS_TYPE = 0
CLASSIFICATION_TYPE = U
NORAD_CAT_ID   = 67310
ELEMENT_SET_NO = 999
REV_AT_EPOCH   = 373
BSTAR          = .6177927E-5
MEAN_MOTION_DOT = .471E-5
MEAN_MOTION_DDOT = 0

CCSDS_OMM_VERS = 2.0
CREATION_DATE  = 
ORIGINATOR     = 

OBJECT_NAME    = STARLINK-36495
OBJECT_ID      = 2026-002G
CENTER_NAME    = EARTH
REF_FRAME      = TEME
TIME_SYSTEM    = UTC
MEAN_ELEMENT_THEORY = SGP/SGP4

EPOCH          = 2026-01-20T22:00:01.999584
MEAN_MOTION    = 15.75031400
ECCENTRICITY   = .00020008
INCLINATION    = 42.9989
RA_OF_ASC_NODE = 239.6447
ARG_OF_PERICENTER = 277.9200
MEAN_ANOMALY   = 319.8328

EPHEMERIS_TYPE = 0
CLASSIFICATION_TYPE = U
NORAD_CAT_ID   = 67311
ELEMENT_SET_NO = 999
REV_AT_EPOCH   = 389
BSTAR          = .52572917E-4
MEAN_MOTION_DOT = .7603E-4
MEAN_MOTION_DDOT = 0

CCSDS_OMM_VERS = 2.0
CREATION_DATE  = 
ORIGINATOR     = 

OBJECT_NAME    = STARLINK-36485
OBJECT_ID      = 2026-002H
CENTER_NAME    = EARTH
REF_FRAME      = TEME
TIME_SYSTEM    = UTC
MEAN_ELEMENT_THEORY = SGP/SGP4

EPOCH          = 2026-01-20T22:00:01.999584
MEAN_MOTION    = 15.75024662
ECCENTRICITY   = .00016869
INCLINATION    = 42.9987
RA_OF_ASC_NODE = 239.6399
ARG_OF_PERICENTER = 281.8432
MEAN_ANOMALY   = 317.8299

EPHEMERIS_TYPE = 0
CLASSIFICATION_TYPE = U
NORAD_CAT_ID   = 67312
ELEMENT_SET_NO = 999
REV_AT_EPOCH   = 373
BSTAR          = .15104838E-3
MEAN_MOTION_DOT = .22773E-3
MEAN_MOTION_DDOT = 0

CCSDS_OMM_VERS = 2.0
CREATION_DATE  = 
ORIGINATOR     = 

OBJECT_NAME    = STARLINK-36445
OBJECT_ID      = 2026-002J
CENTER_NAME    = EARTH
REF_FRAME      = TEME
TIME_SYSTEM    = UTC
MEAN_ELEMENT_THEORY = SGP/SGP4

EPOCH          = 2026-01-20T22:00:01.999584
MEAN_MOTION    = 15.75024628
ECCENTRICITY   = .00017301
INCLINATION    = 42.9988
RA_OF_ASC_NODE = 239.6343
ARG_OF_PERICENTER = 261.2508
MEAN_ANOMALY   = 340.3391

EPHEMERIS_TYPE = 0
CLASSIFICATION_TYPE = U
NORAD_CAT_ID   = 67313
ELEMENT_SET_NO = 999
REV_AT_EPOCH   = 389
BSTAR          = .18500032E-3
MEAN_MOTION_DOT = .28017E-3
MEAN_MOTION_DDOT = 0

CCSDS_OMM_VERS = 2.0
CREATION_DATE  = 
ORIGINATOR     = 

OBJECT_NAME    = STARLINK-36476
OBJECT_ID      = 2026-002K
CENTER_NAME    = EARTH
REF_FRAME      = TEME
TIME_SYSTEM    = UTC
MEAN_ELEMENT_THEORY = SGP/SGP4

EPOCH          = 2026-01-20T22:00:01.999584
MEAN_MOTION    = 15.75025796
ECCENTRICITY   = .00018329
INCLINATION    = 42.9989
RA_OF_ASC_NODE = 239.6305
ARG_OF_PERICENTER = 279.6921
MEAN_ANOMALY   = 323.8137

EPHEMERIS_TYPE = 0
CLASSIFICATION_TYPE = U
NORAD_CAT_ID   = 67314
ELEMENT_SET_NO = 999
REV_AT_EPOCH   = 373
BSTAR          = .15204422E-3
MEAN_MOTION_DOT = .22928E-3
MEAN_MOTION_DDOT = 0

CCSDS_OMM_VERS = 2.0
CREATION_DATE  = 
ORIGINATOR     = 

OBJECT_NAME    = STARLINK-36463
OBJECT_ID      = 2026-002L
CENTER_NAME    = EARTH
REF_FRAME      = TEME
TIME_SYSTEM    = UTC
MEAN_ELEMENT_THEORY = SGP/SGP4

EPOCH          = 2026-01-20T22:00:01.999584
MEAN_MOTION    = 15.75031119
ECCENTRICITY   = .00016218
INCLINATION    = 42.9989
RA_OF_ASC_NODE = 239.6201
ARG_OF_PERICENTER = 284.7942
MEAN_ANOMALY   = 322.5459

EPHEMERIS_TYPE = 0
CLASSIFICATION_TYPE = U
NORAD_CAT_ID   = 67315
ELEMENT_SET_NO = 999
REV_AT_EPOCH   = 379
BSTAR          = .26801153E-4
MEAN_MOTION_DOT = .364E-4
MEAN_MOTION_DDOT = 0

CCSDS_OMM_VERS = 2.0
CREATION_DATE  = 
ORIGINATOR     = 

OBJECT_NAME    = STARLINK-36461
OBJECT_ID      = 2026-002M
CENTER_NAME    = EARTH
REF_FRAME      = TEME
TIME_SYSTEM    = UTC
MEAN_ELEMENT_THEORY = SGP/SGP4

EPOCH          = 2026-01-20T22:00:01.999584
MEAN_MOTION    = 15.75018340
ECCENTRICITY   = .00014577
INCLINATION    = 42.9988
RA_OF_ASC_NODE = 239.6152
ARG_OF_PERICENTER = 283.0122
MEAN_ANOMALY   = 326.2474

EPHEMERIS_TYPE = 0
CLASSIFICATION_TYPE = U
NORAD_CAT_ID   = 67316
ELEMENT_SET_NO = 999
REV_AT_EPOCH   = 389
BSTAR          = .27544897E-3
MEAN_MOTION_DOT = .42006E-3
MEAN_MOTION_DDOT = 0

CCSDS_OMM_VERS = 2.0
CREATION_DATE  = 
ORIGINATOR     = 

OBJECT_NAME    = STARLINK-36450
OBJECT_ID      = 2026-002N
CENTER_NAME    = EARTH
REF_FRAME      = TEME
TIME_SYSTEM    = UTC
MEAN_ELEMENT_THEORY = SGP/SGP4

EPOCH          = 2026-01-20T22:00:01.999584
MEAN_MOTION    = 15.75020881
ECCENTRICITY   = .00017226
INCLINATION    = 42.9989
RA_OF_ASC_NODE = 239.6104
ARG_OF_PERICENTER = 261.3378
MEAN_ANOMALY   = 349.8382

EPHEMERIS_TYPE = 0
CLASSIFICATION_TYPE = U
NORAD_CAT_ID   = 67317
ELEMENT_SET_NO = 999
REV_AT_EPOCH   = 389
BSTAR          = .25695631E-3
MEAN_MOTION_DOT = .39145E-3
MEAN_MOTION_DDOT = 0

