STARLINK-36488          
1 67306U 26002B   26020.91668981  .00015396  00000+0  10320-3 0  9992
2 67306  42.9988 239.6634 0001950 268.4510 321.6363 15.75028458  3730
STARLINK-36481          
1 67307U 26002C   26020.91668981  .00000886  00000+0  88801-5 0  9992
2 67307  42.9989 239.6544 0001888 283.5209 310.3989 15.75032400  3736
STARLINK-36449          
1 67308U 26002D   26020.91668981  .00030184  00000+0  19903-3 0  9992
2 67308  42.9987 239.6494 0001604 270.1185 325.7196 15.75023410  3797
STARLINK-36482          
1 67309U 26002E   26020.91668981  .00005273  00000+0  37431-4 0  9991
2 67309  42.9990 239.6259 0001729 286.0077 319.4158 15.75030134  3738
STARLINK-36491          
1 67310U 26002F   26020.91668981  .00000471  00000+0  61779-5 0  9991
2 67310  42.9987 239.6593 0001663 261.9673 330.0347 15.75034819  3731
STARLINK-36495          
1 67311U 26002G   26020.91668981  .00007603  00000+0  52573-4 0  9997
2 67311  42.9989 239.6447 0002000 277.9200 319.8328 15.75031400  3895
STARLINK-36485          
1 67312U 26002H   26020.91668981  .00022773  00000+0  15105-3 0  9992
2 67312  42.9987 239.6399 0001686 281.8432 317.8299 15.75024662  3730
STARLINK-36445          
1 67313U 26002J   26020.91668981  .00028017  00000+0  18500-3 0  9992
2 67313  42.9988 239.6343 0001730 261.2508 340.3391 15.75024628  3890
STARLINK-36476          
1 67314U 26002K   26020.91668981  .00022928  00000+0  15204-3 0  9996
2 67314  42.9989 239.6305 0001832 279.6921 323.8137 15.75025796  3739
STARLINK-36463          
1 67315U 26002L   26020.91668981  .00003640  00000+0  26801-4 0  9993
2 67315  42.9989 239.6201 0001621 284.7942 322.5459 15.75031119  3796
STARLINK-36461          
1 67316U 26002M   26020.91668981  .00042006  00000+0  27545-3 0  9998
2 67316  42.9988 239.6152 0001457 283.0122 326.2474 15.75018340  3890
STARLINK-36450          
1 67317U 26002N   26020.91668981  .00039145  00000+0  25696-3 0  9994
2 67317  42.9989 239.6104 0001722 261.3378 349.8382 15.75020881  3898
